CUBEBUG-2 (LO-74)
1 39440U 13066AA  26196.86496092  .00002083  00000-0  19551-3 0  9991
2 39440  97.8915 145.9709 0055631 293.0759  66.4601 14.93969667681278
FUNCUBE-1 (AO-73)
1 39444U 13066AE  26196.88912523  .00003677  00000-0  22787-3 0  9994
2 39444  97.8290 168.9436 0037990 105.4335 255.1095 15.09822727683992
UWE-3
1 39446U 13066AG  26196.82148462  .00001951  00000-0  17026-3 0  9996
2 39446  97.8715 153.0945 0047549 222.4036 137.3508 14.97201399681861
UNISAT-6
1 40012U 14033C   26196.97549730  .00001093  00000-0  12208-3 0  9995
2 40012  97.7909 349.1880 0044121 335.1542  24.7549 14.88368249650441
DUCHIFAT-1
1 40021U 14033M   26197.12557747  .00087055  00000-0  68520-3 0  9990
2 40021  98.0416 260.5020 0002770 239.6354 120.4633 15.71200075660289
LILACSAT-2
1 40908U 15049K   26197.15854584  .00011400  00000-0  18830-3 0  9994
2 40908  97.4621 235.1150 0008452 138.6421 221.5472 15.52381660600245
CAS-2T & KS-1Q
1 41847U 16066G   26197.18998330  .00000484  00000-0  76375-4 0  9997
2 41847  98.3813 272.5943 0342197  41.7454 320.9310 14.44771379508986
FOX-1B (AO-91)
1 43017U 17073E   26197.11106051  .00004305  00000-0  18898-3 0  9992
2 43017  97.4663  63.7367 0148313 228.2807 130.5662 15.13068475469768
FUNCUBE-3 (EO-79)/QB50P1
1 40025U 14033R   26197.01289013  .00004113  00000-0  20193-3 0  9998
2 40025  98.0963 210.1890 0010382 122.1904 238.0337 15.18673121657405
FOX-1A (AO-85)
1 40967U 15058D   26196.38863535  .00001629  00000-0  15413-3 0  9995
2 40967  64.7725 191.3328 0132382  45.7352 315.4532 14.91088896117771
DIWATA-2B (PO-101)
1 43678U 18084H   26197.17786047  .00001085  00000-0  91098-4 0  9999
2 43678  98.1210  34.6556 0012781  81.2808 278.9861 15.00565471420568
ESHAIL-2
1 43700U 18090A   26197.13243104  .00000133  00000-0  00000+0 0  9991
2 43700   0.0162  52.8723 0002244 106.1262 208.4198  1.00271422 27967
ITASAT-1
1 43786U 18099AE  26197.13389985  .00003276  00000-0  15784-3 0  9992
2 43786  97.4011 248.0717 0010922 246.7548 113.2537 15.19388606417305
FOX-1CLIFF (AO-95)
1 43770U 18099N   26197.10722852  .00006434  00000-0  24333-3 0  9995
2 43770  97.4366 257.2560 0007323 235.9460 124.1084 15.27285234417639
JY1SAT (JO-97)
1 43803U 18099AX  26197.12152899  .00009462  00000-0  28493-3 0  9997
2 43803  97.4113 260.0715 0007052 155.8355 204.3220 15.34537200418064
UWE-4
1 43880U 18111E   26196.35233479  .00020350  00000-0  39289-3 0  9999
2 43880  97.5850 126.0767 0006289 193.5981 166.5100 15.47824446415137
CAS-6 (TO-108)
1 44881U 19093C   26197.19064394 -.00000169  00000-0 -13049-4 0  9997
2 44881  97.7526 268.7141 0013509 358.3372   1.7797 14.86559970355728
DOSAAF-85 (RS-44)
1 44909U 19096E   26196.85382618  .00000009  00000-0 -14274-4 0  9998
2 44909  82.5242 320.6567 0218528  77.4585 285.0863 12.79748942306017
SALSAT (TUBSAT 22)
1 46495U 20068K   26196.98743720  .00004018  00000-0  14039-3 0  9991
2 46495  97.8856 201.8148 0009305 189.9449 170.1607 15.30178734319765
CAMSAT XW-3 (CAS-9)
1 50466U 21131B   26197.21039666  .00000227  00000-0  83689-4 0  9996
2 50466  98.4994 289.4434 0004529  28.0041 332.1390 14.41382214239291
ROBUSTA 1F (MTCUBE-2)
1 53109U 22080E   26196.19885268 -.00000003  00000-0  00000-0 0  9995
2 53109  70.1411 288.5050 0009069 283.3508  76.6141  6.42583355 93867
UMKA-1 (RS40S)
1 57172U 23091G   26197.17262591  .00003030  00000-0  13904-3 0  9991
2 57172  97.5034 255.7617 0012958  26.3119 333.8771 15.21126943168418
CUBESX-HSE-3 (RS42S)
1 57178U 23091N   26197.18223912  .00006745  00000-0  22132-3 0  9991
2 57178  97.5076 263.1477 0009563 358.4487   1.6723 15.31898058168862
MONITOR-3 (RS58S)
1 57180U 23091Q   26197.14111234  .00005639  00000-0  20652-3 0  9999
2 57180  97.5068 260.8083 0010899   6.4418 353.6959 15.28383529168714
MONITOR-4 (RS57S)
1 57182U 23091S   26197.18402229  .00005373  00000-0  19639-3 0  9990
2 57182  97.5062 260.8243 0010870   6.6032 353.5348 15.28469991168721
MONITOR-2 (RS39S)
1 57184U 23091U   26197.16498721  .00002460  00000-0  12017-3 0  9999
2 57184  97.5055 255.2626 0011297  20.8193 339.3499 15.19158998168358
SVYATOBOR-1 (RS60S)
1 57187U 23091X   26197.15734160  .00004724  00000-0  18056-3 0  9995
2 57187  97.5075 261.1414 0008658   1.0704 359.0552 15.27072520168736
VIZARD-METEO (RS38S)
1 57189U 23091Z   26197.19372861  .00008854  00000-0  24768-3 0  9992
2 57189  97.5078 267.2765 0005568 335.3257  24.7719 15.36892541169140
UTMN-2 (RS27S)
1 57203U 23091AP  26197.18420941  .00006486  00000-0  20774-3 0  9993
2 57203  97.5072 264.8186 0006624 346.3814  13.7248 15.32715186168987
POLYTECH UNIVERSE-3 (RS46S)
1 57191U 23091AB  26197.18823410  .00002447  00000-0  11864-3 0  9990
2 57191  97.5032 254.7899 0015998  34.4917 325.7352 15.19371515168353
